start=new Date('2023-02-12T00:00:00.000Z').valueOf();
sats=[{"BSTAR":"0.00000042031000","INCLINATION":"53.0534","FILE":"3786577","OBJECT_TYPE":"PAYLOAD","REF_FRAME":"TEME","REV_AT_EPOCH":"9801","MEAN_ANOMALY":"265.3548","EPHEMERIS_TYPE":"0","RCS_SIZE":"LARGE","CENTER_NAME":"EARTH","ELEMENT_SET_NO":"999","CLASSIFICATION_TYPE":"U","TLE_LINE1":"1 48363U 21038L   23042.88840278 -.00000275  00000-0  42031-6 0  9995","NORAD_CAT_ID":"48363","SEMIMAJOR_AXIS":"6925.348","ECCENTRICITY":"0.00012970","EPOCH":"2023-02-11T21:19:18.000192","MEAN_MOTION":"15.06400056","MEAN_ELEMENT_THEORY":"SGP4","OBJECT_NAME":"STARLINK-2626","PERIOD":"95.592","DECAY_DATE":null,"GP_ID":"225183705","SITE":"AFETR","PERIAPSIS":"546.315","RA_OF_ASC_NODE":"352.5851","ARG_OF_PERICENTER":"94.7589","APOAPSIS":"548.112","TLE_LINE2":"2 48363  53.0534 352.5851 0001297  94.7589 265.3548 15.06400056 98014","OBJECT_ID":"2021-038L","COUNTRY_CODE":"US","MEAN_MOTION_DOT":"-0.00000275","LAUNCH_DATE":"2021-05-04","MEAN_MOTION_DDOT":"0.0000000000000","TIME_SYSTEM":"UTC"},{"INCLINATION":"53.0547","BSTAR":"-0.00009029500000","OBJECT_TYPE":"PAYLOAD","FILE":"3786577","REF_FRAME":"TEME","REV_AT_EPOCH":"9800","EPHEMERIS_TYPE":"0","RCS_SIZE":"LARGE","MEAN_ANOMALY":"237.4892","CENTER_NAME":"EARTH","ELEMENT_SET_NO":"999","NORAD_CAT_ID":"48364","TLE_LINE1":"1 48364U 21038M   23042.83682670 -.00001626  00000-0 -90295-4 0  9996","CLASSIFICATION_TYPE":"U","ECCENTRICITY":"0.00013030","SEMIMAJOR_AXIS":"6925.342","EPOCH":"2023-02-11T20:05:01.826880","MEAN_ELEMENT_THEORY":"SGP4","MEAN_MOTION":"15.06402058","OBJECT_NAME":"STARLINK-2611","PERIOD":"95.592","SITE":"AFETR","GP_ID":"225183455","DECAY_DATE":null,"PERIAPSIS":"546.305","APOAPSIS":"548.110","TLE_LINE2":"2 48364  53.0547 353.0216 0001303 122.6223 237.4892 15.06402058 98009","OBJECT_ID":"2021-038M","COUNTRY_CODE":"US","RA_OF_ASC_NODE":"353.0216","ARG_OF_PERICENTER":"122.6223","TIME_SYSTEM":"UTC","MEAN_MOTION_DDOT":"0.0000000000000","MEAN_MOTION_DOT":"-0.00001626","LAUNCH_DATE":"2021-05-04"},{"GP_ID":"225119597","DECAY_DATE":null,"SITE":"AFETR","PERIAPSIS":"546.234","ARG_OF_PERICENTER":"94.5388","RA_OF_ASC_NODE":"355.9659","OBJECT_ID":"2021-038N","COUNTRY_CODE":"US","APOAPSIS":"547.932","TLE_LINE2":"2 48365  53.0550 355.9659 0001226  94.5388 265.5741 15.06442726 97908","MEAN_MOTION_DOT":"0.00028924","LAUNCH_DATE":"2021-05-04","MEAN_MOTION_DDOT":"0.0000000000000","TIME_SYSTEM":"UTC","EPOCH":"2023-02-11T03:11:13.125984","MEAN_MOTION":"15.06442726","MEAN_ELEMENT_THEORY":"SGP4","PERIOD":"95.589","OBJECT_NAME":"STARLINK-2608","MEAN_ANOMALY":"265.5741","RCS_SIZE":"LARGE","EPHEMERIS_TYPE":"0","ELEMENT_SET_NO":"999","CENTER_NAME":"EARTH","TLE_LINE1":"1 48365U 21038N   23042.13279081  .00028924  00000-0  19505-2 0  9999","CLASSIFICATION_TYPE":"U","NORAD_CAT_ID":"48365","SEMIMAJOR_AXIS":"6925.218","ECCENTRICITY":"0.00012260","BSTAR":"0.00195050000000","INCLINATION":"53.0550","FILE":"3786144","OBJECT_TYPE":"PAYLOAD","REV_AT_EPOCH":"9790","REF_FRAME":"TEME"},{"EPOCH":"2023-02-11T15:37:37.206048","OBJECT_NAME":"STARLINK-2631","PERIOD":"95.592","MEAN_ELEMENT_THEORY":"SGP4","MEAN_MOTION":"15.06403791","PERIAPSIS":"546.297","SITE":"AFETR","GP_ID":"225182954","DECAY_DATE":null,"TIME_SYSTEM":"UTC","MEAN_MOTION_DDOT":"0.0000000000000","LAUNCH_DATE":"2021-05-04","MEAN_MOTION_DOT":"0.00013279","APOAPSIS":"548.107","TLE_LINE2":"2 48366  53.0530 348.6474 0001307 111.2296 248.8832 15.06403791 98046","OBJECT_ID":"2021-038P","COUNTRY_CODE":"US","ARG_OF_PERICENTER":"111.2296","RA_OF_ASC_NODE":"348.6474","OBJECT_TYPE":"PAYLOAD","FILE":"3786577","INCLINATION":"53.0530","BSTAR":"0.00090858000000","REF_FRAME":"TEME","REV_AT_EPOCH":"9804","CENTER_NAME":"EARTH","ELEMENT_SET_NO":"999","EPHEMERIS_TYPE":"0","RCS_SIZE":"LARGE","MEAN_ANOMALY":"248.8832","ECCENTRICITY":"0.00013070","SEMIMAJOR_AXIS":"6925.337","TLE_LINE1":"1 48366U 21038P   23042.65112507  .00013279  00000-0  90858-3 0  9994","NORAD_CAT_ID":"48366","CLASSIFICATION_TYPE":"U"},{"MEAN_MOTION_DOT":"0.00000683","LAUNCH_DATE":"2021-05-04","MEAN_MOTION_DDOT":"0.0000000000000","TIME_SYSTEM":"UTC","ARG_OF_PERICENTER":"94.8745","RA_OF_ASC_NODE":"347.7730","OBJECT_ID":"2021-038Q","COUNTRY_CODE":"US","APOAPSIS":"548.200","TLE_LINE2":"2 48367  53.0540 347.7730 0001414  94.8745 265.2405 15.06397805 98077","PERIAPSIS":"546.241","GP_ID":"225183205","DECAY_DATE":null,"SITE":"AFETR","PERIOD":"95.592","OBJECT_NAME":"STARLINK-2643","MEAN_MOTION":"15.06397805","MEAN_ELEMENT_THEORY":"SGP4","EPOCH":"2023-02-11T20:18:55.692288","SEMIMAJOR_AXIS":"6925.355","ECCENTRICITY":"0.00014140","TLE_LINE1":"1 48367U 21038Q   23042.84647792  .00000683  00000-0  64722-4 0  9992","NORAD_CAT_ID":"48367","CLASSIFICATION_TYPE":"U","ELEMENT_SET_NO":"999","CENTER_NAME":"EARTH","MEAN_ANOMALY":"265.2405","RCS_SIZE":"LARGE","EPHEMERIS_TYPE":"0","REV_AT_EPOCH":"9807","REF_FRAME":"TEME","FILE":"3786577","OBJECT_TYPE":"PAYLOAD","BSTAR":"0.00006472200000","INCLINATION":"53.0540"},{"EPOCH":"2023-02-11T19:47:07.892160","MEAN_MOTION":"15.06399233","MEAN_ELEMENT_THEORY":"SGP4","PERIOD":"95.592","OBJECT_NAME":"STARLINK-2623","DECAY_DATE":null,"GP_ID":"225183956","SITE":"AFETR","PERIAPSIS":"546.076","RA_OF_ASC_NODE":"348.1530","ARG_OF_PERICENTER":"135.4259","OBJECT_ID":"2021-038R","COUNTRY_CODE":"US","TLE_LINE2":"2 48368  53.0548 348.1530 0001646 135.4259 224.6862 15.06399233 98071","APOAPSIS":"548.356","MEAN_MOTION_DOT":"0.00001986","LAUNCH_DATE":"2021-05-04","MEAN_MOTION_DDOT":"0.0000000000000","TIME_SYSTEM":"UTC","BSTAR":"0.00015220000000","INCLINATION":"53.0548","FILE":"3786577","OBJECT_TYPE":"PAYLOAD","REV_AT_EPOCH":"9807","REF_FRAME":"TEME","MEAN_ANOMALY":"224.6862","RCS_SIZE":"LARGE","EPHEMERIS_TYPE":"0","ELEMENT_SET_NO":"999","CENTER_NAME":"EARTH","TLE_LINE1":"1 48368U 21038R   23042.82439690  .00001986  00000-0  15220-3 0  9992","NORAD_CAT_ID":"48368","CLASSIFICATION_TYPE":"U","SEMIMAJOR_AXIS":"6925.351","ECCENTRICITY":"0.00016460"},{"REV_AT_EPOCH":"9807","REF_FRAME":"TEME","OBJECT_TYPE":"PAYLOAD","FILE":"3786577","INCLINATION":"53.0539","BSTAR":"0.00374720000000","ECCENTRICITY":"0.00016230","SEMIMAJOR_AXIS":"6925.320","TLE_LINE1":"1 48369U 21038S   23042.84279810  .00055992  00000-0  37472-2 0  9999","NORAD_CAT_ID":"48369","CLASSIFICATION_TYPE":"U","ELEMENT_SET_NO":"999","CENTER_NAME":"EARTH","RCS_SIZE":"LARGE","EPHEMERIS_TYPE":"0","MEAN_ANOMALY":"265.3839","PERIOD":"95.592","OBJECT_NAME":"STARLINK-2641","MEAN_ELEMENT_THEORY":"SGP4","MEAN_MOTION":"15.06409203","EPOCH":"2023-02-11T20:13:37.755840","MEAN_MOTION_DDOT":"0.0000000000000","TIME_SYSTEM":"UTC","MEAN_MOTION_DOT":"0.00055992","LAUNCH_DATE":"2021-05-04","COUNTRY_CODE":"US","OBJECT_ID":"2021-038S","TLE_LINE2":"2 48369  53.0539 347.7919 0001623  94.7335 265.3839 15.06409203 98070","APOAPSIS":"548.309","ARG_OF_PERICENTER":"94.7335","RA_OF_ASC_NODE":"347.7919","PERIAPSIS":"546.061","SITE":"AFETR","DECAY_DATE":null,"GP_ID":"225182204"},{"SITE":"AFETR","GP_ID":"225182454","DECAY_DATE":null,"PERIAPSIS":"546.334","TLE_LINE2":"2 48370  53.0529 347.8045 0001237 101.5388 258.5739 15.06407618 98079","APOAPSIS":"548.047","OBJECT_ID":"2021-038T","COUNTRY_CODE":"US","RA_OF_ASC_NODE":"347.8045","ARG_OF_PERICENTER":"101.5388","TIME_SYSTEM":"UTC","MEAN_MOTION_DDOT":"0.0000000000000","MEAN_MOTION_DOT":"0.00001225","LAUNCH_DATE":"2021-05-04","EPOCH":"2023-02-11T20:08:18.983040","MEAN_ELEMENT_THEORY":"SGP4","MEAN_MOTION":"15.06407618","OBJECT_NAME":"STARLINK-2621","PERIOD":"95.592","EPHEMERIS_TYPE":"0","RCS_SIZE":"LARGE","MEAN_ANOMALY":"258.5739","CENTER_NAME":"EARTH","ELEMENT_SET_NO":"999","NORAD_CAT_ID":"48370","TLE_LINE1":"1 48370U 21038T   23042.83910860  .00001225  00000-0  10107-3 0  9994","CLASSIFICATION_TYPE":"U","ECCENTRICITY":"0.00012370","SEMIMAJOR_AXIS":"6925.325","INCLINATION":"53.0529","BSTAR":"0.00010107000000","OBJECT_TYPE":"PAYLOAD","FILE":"3786577","REF_FRAME":"TEME","REV_AT_EPOCH":"9807"},{"PERIOD":"95.592","OBJECT_NAME":"STARLINK-2589","MEAN_ELEMENT_THEORY":"SGP4","MEAN_MOTION":"15.06401637","EPOCH":"2023-02-11T20:03:00.893664","MEAN_MOTION_DDOT":"0.0000000000000","TIME_SYSTEM":"UTC","LAUNCH_DATE":"2021-05-04","MEAN_MOTION_DOT":"0.00001662","OBJECT_ID":"2021-038U","COUNTRY_CODE":"US","TLE_LINE2":"2 48371  53.0559 347.8157 0001488 119.5051 240.6087 15.06401637 98074","APOAPSIS":"548.239","RA_OF_ASC_NODE":"347.8157","ARG_OF_PERICENTER":"119.5051","PERIAPSIS":"546.178","SITE":"AFETR","GP_ID":"225183706","DECAY_DATE":null,"REV_AT_EPOCH":"9807","REF_FRAME":"TEME","OBJECT_TYPE":"PAYLOAD","FILE":"3786577","INCLINATION":"53.0559","BSTAR":"0.00013045000000","ECCENTRICITY":"0.00014880","SEMIMAJOR_AXIS":"6925.344","TLE_LINE1":"1 48371U 21038U   23042.83542701  .00001662  00000-0  13045-3 0  9999","CLASSIFICATION_TYPE":"U","NORAD_CAT_ID":"48371","ELEMENT_SET_NO":"999","CENTER_NAME":"EARTH","RCS_SIZE":"LARGE","EPHEMERIS_TYPE":"0","MEAN_ANOMALY":"240.6087"},{"EPOCH":"2023-02-11T19:57:42.024096","OBJECT_NAME":"STARLINK-2572","PERIOD":"95.592","MEAN_MOTION":"15.06398741","MEAN_ELEMENT_THEORY":"SGP4","PERIAPSIS":"546.391","DECAY_DATE":null,"GP_ID":"225183456","SITE":"AFETR","LAUNCH_DATE":"2021-05-04","MEAN_MOTION_DOT":"0.00001238","MEAN_MOTION_DDOT":"0.0000000000000","TIME_SYSTEM":"UTC","RA_OF_ASC_NODE":"347.8338","ARG_OF_PERICENTER":"101.6592","TLE_LINE2":"2 48372  53.0551 347.8338 0001193 101.6592 258.4531 15.06398741 98075","APOAPSIS":"548.044","OBJECT_ID":"2021-038V","COUNTRY_CODE":"US","FILE":"3786577","OBJECT_TYPE":"PAYLOAD","BSTAR":"0.00010201000000","INCLINATION":"53.0551","REF_FRAME":"TEME","REV_AT_EPOCH":"9807","CENTER_NAME":"EARTH","ELEMENT_SET_NO":"999","MEAN_ANOMALY":"258.4531","EPHEMERIS_TYPE":"0","RCS_SIZE":"LARGE","SEMIMAJOR_AXIS":"6925.352","ECCENTRICITY":"0.00011930","TLE_LINE1":"1 48372U 21038V   23042.83173639  .00001238  00000-0  10201-3 0  9990","CLASSIFICATION_TYPE":"U","NORAD_CAT_ID":"48372"}];
